[
    {
        "Altitude(m)": 610399.5770527979,
        "Argument of Periapsis(deg)": 0.0,
        "Eccentricity": 0.0,
        "Inclination(deg)": 60.0,
        "Latitude(deg)": 52.11146795757888,
        "Longitude(deg)": 92.5842826408108,
        "Mean Anomaly(deg)": 65.45450000000001,
        "RAAN(deg)": 145.0,
        "Satellite Name": "Test1 642",
        "Satellite Number": 642,
        "Semi-Major Axis(m)": 6980739.136638005,
        "Time(s)": 0
    },
    {
        "Altitude(m)": 610481.7280675619,
        "Argument of Periapsis(deg)": 0.00010418945913296404,
        "Eccentricity": 0.0,
        "Inclination(deg)": 60.0,
        "Latitude(deg)": 52.47107043637829,
        "Longitude(deg)": 93.36642091313094,
        "Mean Anomaly(deg)": 66.07460614546181,
        "RAAN(deg)": 144.99957995086027,
        "Satellite Name": "Test1 642",
        "Satellite Number": 642,
        "Semi-Major Axis(m)": 6980739.136638005,
        "Time(s)": 10
    },
    {
        "Altitude(m)": 610562.4178843604,
        "Argument of Periapsis(deg)": 0.0002083789182659281,
        "Eccentricity": 0.0,
        "Inclination(deg)": 60.0,
        "Latitude(deg)": 52.82482549057782,
        "Longitude(deg)": 94.16197229961327,
        "Mean Anomaly(deg)": 66.69471229092363,
        "RAAN(deg)": 144.99915990172053,
        "Satellite Name": "Test1 642",
        "Satellite Number": 642,
        "Semi-Major Axis(m)": 6980739.136638005,
        "Time(s)": 20
    },
    {
        "Altitude(m)": 610641.5990373135,
        "Argument of Periapsis(deg)": 0.00031256837739889213,
        "Eccentricity": 0.0,
        "Inclination(deg)": 60.0,
        "Latitude(deg)": 53.17256359185651,
        "Longitude(deg)": 94.97110131307407,
        "Mean Anomaly(deg)": 67.3148184363855,
        "RAAN(deg)": 144.99873985258077,
        "Satellite Name": "Test1 642",
        "Satellite Number": 642,
        "Semi-Major Axis(m)": 6980739.136638005,
        "Time(s)": 30
    },
    {
        "Altitude(m)": 610719.2250169991,
        "Argument of Periapsis(deg)": 0.0004167578365318562,
        "Eccentricity": 0.0,
        "Inclination(deg)": 60.0,
        "Latitude(deg)": 53.5141117359353,
        "Longitude(deg)": 95.79396085365047,
        "Mean Anomaly(deg)": 67.93492458184731,
        "RAAN(deg)": 144.99831980344103,
        "Satellite Name": "Test1 642",
        "Satellite Number": 642,
        "Semi-Major Axis(m)": 6980739.136638005,
        "Time(s)": 40
    },
    {
        "Altitude(m)": 610795.2502927785,
        "Argument of Periapsis(deg)": 0.0005209472956648203,
        "Eccentricity": 0.0,
        "Inclination(deg)": 60.0,
        "Latitude(deg)": 53.849293564543416,
        "Longitude(deg)": 96.63068979458158,
        "Mean Anomaly(deg)": 68.55503072730914,
        "RAAN(deg)": 144.9978997543013,
        "Satellite Name": "Test1 642",
        "Satellite Number": 642,
        "Semi-Major Axis(m)": 6980739.136638005,
        "Time(s)": 50
    },
    {
        "Altitude(m)": 610869.6303346406,
        "Argument of Periapsis(deg)": 0.0006251367547977843,
        "Eccentricity": 0.0,
        "Inclination(deg)": 60.0,
        "Latitude(deg)": 54.17792951171036,
        "Longitude(deg)": 97.48141201522142,
        "Mean Anomaly(deg)": 69.17513687277096,
        "RAAN(deg)": 144.99747970516157,
        "Satellite Name": "Test1 642",
        "Satellite Number": 642,
        "Semi-Major Axis(m)": 6980739.136638005,
        "Time(s)": 60
    },
    {
        "Altitude(m)": 610942.3216345101,
        "Argument of Periapsis(deg)": 0.0007293262139307483,
        "Eccentricity": 0.0,
        "Inclination(deg)": 60.0,
        "Latitude(deg)": 54.49983697604696,
        "Longitude(deg)": 98.34623537271067,
        "Mean Anomaly(deg)": 69.79524301823281,
        "RAAN(deg)": 144.9970596560218,
        "Satellite Name": "Test1 642",
        "Satellite Number": 642,
        "Semi-Major Axis(m)": 6980739.136638005,
        "Time(s)": 70
    },
    {
        "Altitude(m)": 611013.2817270819,
        "Argument of Periapsis(deg)": 0.0008335156730637124,
        "Eccentricity": 0.0,
        "Inclination(deg)": 60.0,
        "Latitude(deg)": 54.814830520640896,
        "Longitude(deg)": 99.22524910504741,
        "Mean Anomaly(deg)": 70.41534916369463,
        "RAAN(deg)": 144.99663960688207,
        "Satellite Name": "Test1 642",
        "Satellite Number": 642,
        "Semi-Major Axis(m)": 6980739.136638005,
        "Time(s)": 80
    },
    {
        "Altitude(m)": 611082.4692101164,
        "Argument of Periapsis(deg)": 0.0009377051321966765,
        "Eccentricity": 0.0,
        "Inclination(deg)": 60.0,
        "Latitude(deg)": 55.12272210212493,
        "Longitude(deg)": 100.11852269835649,
        "Mean Anomaly(deg)": 71.03545530915649,
        "RAAN(deg)": 144.99621955774234,
        "Satellite Name": "Test1 642",
        "Satellite Number": 642,
        "Semi-Major Axis(m)": 6980739.136638005,
        "Time(s)": 90
    },
    {
        "Altitude(m)": 611149.8437642284,
        "Argument of Periapsis(deg)": 0.0010418945913296407,
        "Eccentricity": 0.0,
        "Inclination(deg)": 60.0,
        "Latitude(deg)": 55.42332133037847,
        "Longitude(deg)": 101.02610471406955,
        "Mean Anomaly(deg)": 71.65556145461831,
        "RAAN(deg)": 144.9957995086026,
        "Satellite Name": "Test1 642",
        "Satellite Number": 642,
        "Semi-Major Axis(m)": 6980739.136638005,
        "Time(s)": 100
    },
    {
        "Altitude(m)": 611215.3661721217,
        "Argument of Periapsis(deg)": 0.0011460840504626045,
        "Eccentricity": 0.0,
        "Inclination(deg)": 60.0,
        "Latitude(deg)": 55.71643576019135,
        "Longitude(deg)": 101.9480200733651,
        "Mean Anomaly(deg)": 72.27566760008011,
        "RAAN(deg)": 144.99537945946284,
        "Satellite Name": "Test1 642",
        "Satellite Number": 642,
        "Semi-Major Axis(m)": 6980739.136638005,
        "Time(s)": 110
    },
    {
        "Altitude(m)": 611278.9983372918,
        "Argument of Periapsis(deg)": 0.0012502735095955685,
        "Eccentricity": 0.0,
        "Inclination(deg)": 60.0,
        "Latitude(deg)": 56.001871216047576,
        "Longitude(deg)": 102.88426883657057,
        "Mean Anomaly(deg)": 72.89577374554196,
        "RAAN(deg)": 144.9949594103231,
        "Satellite Name": "Test1 642",
        "Satellite Number": 642,
        "Semi-Major Axis(m)": 6980739.136638005,
        "Time(s)": 120
    },
    {
        "Altitude(m)": 611340.7033021831,
        "Argument of Periapsis(deg)": 0.0013544629687285324,
        "Eccentricity": 0.0,
        "Inclination(deg)": 60.0,
        "Latitude(deg)": 56.279432150977016,
        "Longitude(deg)": 103.83482497836985,
        "Mean Anomaly(deg)": 73.51587989100379,
        "RAAN(deg)": 144.99453936118337,
        "Satellite Name": "Test1 642",
        "Satellite Number": 642,
        "Semi-Major Axis(m)": 6980739.136638005,
        "Time(s)": 130
    },
    {
        "Altitude(m)": 611400.4452657973,
        "Argument of Periapsis(deg)": 0.0014586524278614966,
        "Eccentricity": 0.0,
        "Inclination(deg)": 60.0,
        "Latitude(deg)": 56.5489220401692,
        "Longitude(deg)": 104.79963366146576,
        "Mean Anomaly(deg)": 74.13598603646562,
        "RAAN(deg)": 144.99411931204364,
        "Satellite Name": "Test1 642",
        "Satellite Number": 642,
        "Semi-Major Axis(m)": 6980739.136638005,
        "Time(s)": 140
    },
    {
        "Altitude(m)": 611458.1896006993,
        "Argument of Periapsis(deg)": 0.0015628418869944607,
        "Eccentricity": 0.0,
        "Inclination(deg)": 60.0,
        "Latitude(deg)": 56.81014380974419,
        "Longitude(deg)": 105.7786100517658,
        "Mean Anomaly(deg)": 74.75609218192744,
        "RAAN(deg)": 144.99369926290387,
        "Satellite Name": "Test1 642",
        "Satellite Number": 642,
        "Semi-Major Axis(m)": 6980739.136638005,
        "Time(s)": 150
    },
    {
        "Altitude(m)": 611513.9028695017,
        "Argument of Periapsis(deg)": 0.0016670313461274247,
        "Eccentricity": 0.0,
        "Inclination(deg)": 60.0,
        "Latitude(deg)": 57.06290030073134,
        "Longitude(deg)": 106.7716381812723,
        "Mean Anomaly(deg)": 75.37619832738928,
        "RAAN(deg)": 144.99327921376414,
        "Satellite Name": "Test1 642",
        "Satellite Number": 642,
        "Semi-Major Axis(m)": 6980739.136638005,
        "Time(s)": 160
    },
    {
        "Altitude(m)": 611567.552840746,
        "Argument of Periapsis(deg)": 0.0017712208052603888,
        "Eccentricity": 0.0,
        "Inclination(deg)": 60.0,
        "Latitude(deg)": 57.306994767917686,
        "Longitude(deg)": 107.77856836649273,
        "Mean Anomaly(deg)": 75.99630447285111,
        "RAAN(deg)": 144.9928591646244,
        "Satellite Name": "Test1 642",
        "Satellite Number": 642,
        "Semi-Major Axis(m)": 6980739.136638005,
        "Time(s)": 170
    },
    {
        "Altitude(m)": 611619.1085042101,
        "Argument of Periapsis(deg)": 0.001875410264393353,
        "Eccentricity": 0.0,
        "Inclination(deg)": 60.0,
        "Latitude(deg)": 57.54223141279203,
        "Longitude(deg)": 108.79921623030556,
        "Mean Anomaly(deg)": 76.61641061831293,
        "RAAN(deg)": 144.99243911548467,
        "Satellite Name": "Test1 642",
        "Satellite Number": 642,
        "Semi-Major Axis(m)": 6980739.136638005,
        "Time(s)": 180
    },
    {
        "Altitude(m)": 611668.5400855971,
        "Argument of Periapsis(deg)": 0.0019795997235263173,
        "Eccentricity": 0.0,
        "Inclination(deg)": 60.0,
        "Latitude(deg)": 57.76841594933493,
        "Longitude(deg)": 109.8333618378495,
        "Mean Anomaly(deg)": 77.23651676377479,
        "RAAN(deg)": 144.99201906634488,
        "Satellite Name": "Test1 642",
        "Satellite Number": 642,
        "Semi-Major Axis(m)": 6980739.136638005,
        "Time(s)": 190
    }
]